     2.11           N: GPS NAV DATA                         RINEX VERSION / TYPE
teqc  2018Dec12     gpsops              20220501 01:04:09UTCPGM / RUN BY / DATE
Linux 2.6.32-573.12.1.x86_64|x86_64|gcc -static|Linux 64|=+ COMMENT
CHPI                                    MARKER NAME         COMMENT
41609M003                               MARKER NUMBER       COMMENT
4164613.9484 -4162456.9866 -2445028.7316                    COMMENT
                                                            COMMENT
This data is provided as a public service by NASA/JPL.      COMMENT
No warranty is expressed or implied regarding suitability   COMMENT
for use.  For further information, contact:                 COMMENT
Dave Stowers, NASA/JPL m/s 238-600                          COMMENT
4800 Oak Grove Drive, Pasadena CA 91109 USA                 COMMENT
                                                            END OF HEADER
30 22  4 30 18  0  0.0-5.260352045298D-04-1.591615728103D-12 0.000000000000D+00
    2.800000000000D+01 4.031250000000D+01 4.721268088338D-09-1.580709887712D-01
    2.173706889153D-06 5.764679517597D-03 1.204013824463D-05 5.153783943176D+03
    5.832000000000D+05 1.005828380585D-07-1.973677201292D-02 5.587935447693D-08
    9.364758229712D-01 1.342500000000D+02-2.707327608822D+00-8.123909822024D-09
   -1.442917246152D-10 1.000000000000D+00 2.207000000000D+03 0.000000000000D+00
    2.000000000000D+00 0.000000000000D+00 3.725290298462D-09 2.800000000000D+01
    5.764980000000D+05 4.000000000000D+00
 8 22  4 30 18  0  0.0-6.609689444304D-05-1.591615728103D-12 0.000000000000D+00
    2.200000000000D+01-7.746875000000D+01 4.856630869598D-09 2.694132785559D+00
   -3.986060619354D-06 7.440249435604D-03 2.790242433548D-06 5.153751914978D+03
    5.832000000000D+05-2.067536115646D-07 2.036394854648D+00-2.793967723846D-08
    9.635867758855D-01 3.291875000000D+02 1.603264924591D-01-8.323918153174D-09
   -2.489389407347D-10 1.000000000000D+00 2.207000000000D+03 0.000000000000D+00
    2.000000000000D+00 0.000000000000D+00 5.122274160385D-09 2.200000000000D+01
    5.800920000000D+05 4.000000000000D+00
11 22  4 30 18  0  0.0-3.139674663544D-05 5.798028723802D-12 0.000000000000D+00
    2.370000000000D+02-7.984375000000D+01 4.126243303167D-09 2.612701097922D+00
   -4.081055521965D-06 3.217324847355D-04 1.203082501888D-05 5.153575052261D+03
    5.832000000000D+05-1.303851604462D-08-3.123468482508D+00 2.421438694000D-08
    9.630835949717D-01 1.504062500000D+02 2.862396240579D+00-7.775323873449D-09
   -2.928693420408D-11 1.000000000000D+00 2.207000000000D+03 0.000000000000D+00
    2.000000000000D+00 6.300000000000D+01-8.847564458847D-09 1.005000000000D+03
    5.815380000000D+05 4.000000000000D+00
27 22  4 30 18  0  0.0 1.944820396602D-04 7.503331289627D-12 0.000000000000D+00
    1.180000000000D+02-8.065625000000D+01 4.559475634747D-09 2.716151263585D+00
   -4.317611455917D-06 1.053167378996D-02 2.792105078697D-06 5.153653585434D+03
    5.832000000000D+05-1.117587089539D-07 2.056448085100D+00-1.545995473862D-07
    9.723254512007D-01 3.323125000000D+02 6.744928516318D-01-8.116052351872D-09
   -2.935836575092D-10 1.000000000000D+00 2.207000000000D+03 0.000000000000D+00
    2.800000000000D+00 0.000000000000D+00 1.396983861923D-09 1.180000000000D+02
    5.818320000000D+05 4.000000000000D+00
14 22  4 30 18  0  0.0-1.058741472661D-04-2.273736754432D-12 0.000000000000D+00
    1.410000000000D+02 1.120000000000D+02 4.948777565021D-09-7.737144452723D-01
    5.776062607765D-06 1.793434494175D-03 4.312023520470D-06 5.153657337189D+03
    5.832000000000D+05 2.793967723846D-08 1.048518705687D+00-1.862645149231D-08
    9.529181941706D-01 2.906875000000D+02 3.072193985028D+00-8.464995458181D-09
    4.664480008601D-10 1.000000000000D+00 2.207000000000D+03 0.000000000000D+00
    2.000000000000D+00 0.000000000000D+00-7.450580596924D-09 1.410000000000D+02
    5.818380000000D+05 4.000000000000D+00
 2 22  4 30 18  0  0.0-6.532669067383D-04 0.000000000000D+00 0.000000000000D+00
    3.100000000000D+01-9.843750000000D+01 4.244462513186D-09 6.531661246594D-01
   -5.237758159637D-06 2.045169868506D-02 1.150742173195D-05 5.153659442902D+03
    5.832000000000D+05-2.495944499969D-07 3.026957399577D+00-1.937150955200D-07
    9.660727081889D-01 1.700625000000D+02-1.421823569344D+00-8.193555580192D-09
   -2.107230631757D-10 1.000000000000D+00 2.207000000000D+03 0.000000000000D+00
    2.000000000000D+00 0.000000000000D+00-1.769512891769D-08 3.100000000000D+01
    5.830980000000D+05 4.000000000000D+00
 7 22  4 30 20  0  0.0 3.214445896447D-04 6.821210263297D-13 0.000000000000D+00
    1.360000000000D+02 4.090625000000D+01 4.406969282245D-09 8.834666367316D-01
    2.235174179077D-06 1.598628377542D-02 1.187995076180D-05 5.153675901413D+03
    5.904000000000D+05-2.346932888031D-07-3.180750365306D-02 8.009374141693D-08
    9.513201975505D-01 1.489687500000D+02-2.274165741800D+00-8.055335537058D-09
   -3.835874065266D-10 1.000000000000D+00 2.207000000000D+03 0.000000000000D+00
    2.000000000000D+00 0.000000000000D+00-1.117587089539D-08 1.360000000000D+02
    5.832180000000D+05 4.000000000000D+00
 9 22  4 30 20  0  0.0-3.401231952012D-04 2.728484105319D-12 0.000000000000D+00
    6.200000000000D+01-3.362500000000D+01 4.958777981578D-09-2.050413154498D+00
   -1.812353730202D-06 2.081888495013D-03 5.524605512619D-06 5.153568965912D+03
    5.904000000000D+05 2.421438694000D-08-1.103505760096D+00 6.891787052155D-08
    9.539585000863D-01 2.695312500000D+02 1.880339568033D+00-8.263915653829D-09
   -4.535903224290D-10 1.000000000000D+00 2.207000000000D+03 0.000000000000D+00
    2.000000000000D+00 0.000000000000D+00 1.396983861923D-09 6.200000000000D+01
    5.832180000000D+05 4.000000000000D+00
 4 22  4 30 19 59 44.0-1.714280806482D-04 3.410605131648D-12 0.000000000000D+00
    1.000000000000D+02-3.493750000000D+01 4.744840498795D-09-3.005067863150D+00
   -1.836568117142D-06 1.800860627554D-03 5.787238478661D-06 5.153617826462D+03
    5.903840000000D+05-2.235174179077D-08-1.049926758487D+00 5.587935447693D-09
    9.609581095910D-01 2.679687500000D+02-2.968525455435D+00-8.152482440760D-09
   -4.328751738457D-10 1.000000000000D+00 2.207000000000D+03 0.000000000000D+00
    2.000000000000D+00 0.000000000000D+00-4.190951585770D-09 6.120000000000D+02
    5.832180000000D+05 4.000000000000D+00
 3 22  4 30 20  0  0.0-2.272054553032D-04-1.455191522837D-11 0.000000000000D+00
    8.300000000000D+01 4.534375000000D+01 4.443042213399D-09 4.399924758413D-01
    2.415850758553D-06 4.095476237126D-03 7.349997758865D-06 5.153630825043D+03
    5.904000000000D+05-5.215406417847D-08-2.131764103686D+00 8.568167686462D-08
    9.733382615712D-01 2.431875000000D+02 9.459086807105D-01-8.022477025512D-09
    3.900162457421D-10 1.000000000000D+00 2.207000000000D+03 0.000000000000D+00
    2.000000000000D+00 0.000000000000D+00 1.862645149231D-09 8.300000000000D+01
    5.832180000000D+05 4.000000000000D+00
30 22  4 30 20  0  0.0-5.260463804007D-04-1.591615728103D-12 0.000000000000D+00
    3.200000000000D+01 4.303125000000D+01 4.645907806423D-09 8.920788661855D-01
    2.305954694748D-06 5.765151116066D-03 1.181848347187D-05 5.153784646988D+03
    5.904000000000D+05-8.009374141693D-08-1.979424713842D-02 1.247972249985D-07
    9.364747916140D-01 1.395625000000D+02-2.707363858469D+00-8.016405344031D-09
   -2.567964108870D-10 1.000000000000D+00 2.207000000000D+03 0.000000000000D+00
    2.000000000000D+00 0.000000000000D+00 3.725290298462D-09 3.200000000000D+01
    5.832180000000D+05 4.000000000000D+00
 6 22  4 30 20  0  0.0 2.860222011805D-04 1.421085471520D-11 0.000000000000D+00
    1.250000000000D+02-7.743750000000D+01 3.695868233461D-09 1.794541617061D+00
   -3.889203071594D-06 2.606751979329D-03 1.193955540657D-05 5.153720088959D+03
    5.904000000000D+05 1.676380634308D-08 3.109394571290D+00-5.029141902924D-08
    9.872728693407D-01 1.575312500000D+02-8.672465837298D-01-7.531027983259D-09
   -1.196478409557D-10 1.000000000000D+00 2.207000000000D+03 0.000000000000D+00
    2.000000000000D+00 0.000000000000D+00 3.725290298462D-09 1.250000000000D+02
    5.832180000000D+05 4.000000000000D+00
16 22  4 30 20  0  0.0-4.967264831066D-04-3.524291969370D-12 0.000000000000D+00
    7.500000000000D+01 9.540625000000D+01 4.422327064816D-09-1.594990232762D+00
    4.909932613373D-06 1.274841872510D-02 3.619119524956D-06 5.153646085739D+03
    5.904000000000D+05 1.769512891769D-07 1.099521973766D+00-7.450580596924D-08
    9.693810257422D-01 3.064375000000D+02 7.281130782723D-01-8.142482024202D-09
    5.371652322309D-10 1.000000000000D+00 2.207000000000D+03 0.000000000000D+00
    2.000000000000D+00 0.000000000000D+00-1.024454832077D-08 7.500000000000D+01
    5.832180000000D+05 4.000000000000D+00
14 22  4 30 20  0  0.0-1.058899797499D-04-2.160049916711D-12 0.000000000000D+00
    1.420000000000D+02 1.070312500000D+02 4.863059708814D-09 2.766345859809D-01
    5.610287189484D-06 1.794644398615D-03 4.047527909279D-06 5.153659683228D+03
    5.904000000000D+05 6.146728992462D-08 1.048457791241D+00-1.862645149231D-08
    9.529216510460D-01 2.980937500000D+02 3.072037991147D+00-8.441423047724D-09
    4.657336853917D-10 1.000000000000D+00 2.207000000000D+03 0.000000000000D+00
    2.000000000000D+00 0.000000000000D+00-7.450580596924D-09 1.420000000000D+02
    5.832180000000D+05 4.000000000000D+00
 8 22  4 30 20  0  0.0-6.610853597522D-05-1.591615728103D-12 0.000000000000D+00
    3.000000000000D+01-7.243750000000D+01 4.829844039534D-09-2.538890726327D+00
   -3.824010491371D-06 7.439206703566D-03 2.533197402954D-06 5.153753889084D+03
    5.904000000000D+05-1.508742570877D-07 2.036334695068D+00-1.788139343262D-07
    9.635849355346D-01 3.350937500000D+02 1.602997664087D-01-8.367491396746D-09
   -2.042942239602D-10 1.000000000000D+00 2.207000000000D+03 0.000000000000D+00
    2.000000000000D+00 0.000000000000D+00 5.122274160385D-09 3.000000000000D+01
    5.832180000000D+05 4.000000000000D+00
